start=new Date('2023-01-08T00:00:00.000Z').valueOf();
sats=[{"EPHEMERIS_TYPE":"0","MEAN_ELEMENT_THEORY":"SGP4","OBJECT_ID":"2020-019S","TLE_LINE1":"1 45376U 20019S   23007.57248502 -.00002556  00000-0 -15272-3 0  9992","PERIAPSIS":"546.158","APOAPSIS":"548.226","REF_FRAME":"TEME","REV_AT_EPOCH":"15532","EPOCH":"2023-01-07T13:44:22.705728","MEAN_MOTION_DOT":"-0.00002556","ECCENTRICITY":"0.00014930","FILE":"3735488","TLE_LINE2":"2 45376  53.0561 321.1155 0001493  70.2499 289.8651 15.06407084155323","CLASSIFICATION_TYPE":"U","ARG_OF_PERICENTER":"70.2499","BSTAR":"-0.00015272000000","INCLINATION":"53.0561","RCS_SIZE":"LARGE","SITE":"AFETR","MEAN_ANOMALY":"289.8651","SEMIMAJOR_AXIS":"6925.327","RA_OF_ASC_NODE":"321.1155","GP_ID":"222420690","CENTER_NAME":"EARTH","DECAY_DATE":null,"LAUNCH_DATE":"2020-03-18","NORAD_CAT_ID":"45376","OBJECT_TYPE":"PAYLOAD","OBJECT_NAME":"STARLINK-1304","MEAN_MOTION":"15.06407084","ELEMENT_SET_NO":"999","COUNTRY_CODE":"US","TIME_SYSTEM":"UTC","MEAN_MOTION_DDOT":"0.0000000000000","PERIOD":"95.592"},{"COUNTRY_CODE":"US","PERIOD":"95.594","MEAN_MOTION_DDOT":"0.0000000000000","TIME_SYSTEM":"UTC","ELEMENT_SET_NO":"999","MEAN_MOTION":"15.06378023","OBJECT_NAME":"STARLINK-1305","OBJECT_TYPE":"PAYLOAD","NORAD_CAT_ID":"45377","LAUNCH_DATE":"2020-03-18","DECAY_DATE":null,"RA_OF_ASC_NODE":"319.8045","SEMIMAJOR_AXIS":"6925.416","CENTER_NAME":"EARTH","GP_ID":"222399807","RCS_SIZE":"LARGE","SITE":"AFETR","MEAN_ANOMALY":"310.0030","INCLINATION":"53.0566","BSTAR":"0.00008878800000","CLASSIFICATION_TYPE":"U","ARG_OF_PERICENTER":"50.1122","ECCENTRICITY":"0.00018510","MEAN_MOTION_DOT":"0.00001040","TLE_LINE2":"2 45377  53.0566 319.8045 0001851  50.1122 310.0030 15.06378023155372","FILE":"3735386","REV_AT_EPOCH":"15537","APOAPSIS":"548.563","REF_FRAME":"TEME","TLE_LINE1":"1 45377U 20019T   23007.86368406  .00001040  00000-0  88788-4 0  9999","PERIAPSIS":"545.999","EPOCH":"2023-01-07T20:43:42.302784","EPHEMERIS_TYPE":"0","OBJECT_ID":"2020-019T","MEAN_ELEMENT_THEORY":"SGP4"},{"RCS_SIZE":"LARGE","SITE":"AFETR","MEAN_ANOMALY":"297.0183","RA_OF_ASC_NODE":"319.8669","SEMIMAJOR_AXIS":"6925.329","GP_ID":"222421690","CENTER_NAME":"EARTH","DECAY_DATE":null,"NORAD_CAT_ID":"45378","LAUNCH_DATE":"2020-03-18","OBJECT_TYPE":"PAYLOAD","OBJECT_NAME":"STARLINK-1310","MEAN_MOTION":"15.06406295","ELEMENT_SET_NO":"999","COUNTRY_CODE":"US","TIME_SYSTEM":"UTC","MEAN_MOTION_DDOT":"0.0000000000000","PERIOD":"95.592","EPHEMERIS_TYPE":"0","MEAN_ELEMENT_THEORY":"SGP4","OBJECT_ID":"2020-019U","PERIAPSIS":"545.709","TLE_LINE1":"1 45378U 20019U   23007.85264115  .00011861  00000-0  81371-3 0  9993","APOAPSIS":"548.680","REV_AT_EPOCH":"15537","REF_FRAME":"TEME","EPOCH":"2023-01-07T20:27:48.195360","ECCENTRICITY":"0.00021450","MEAN_MOTION_DOT":"0.00011861","FILE":"3735488","TLE_LINE2":"2 45378  53.0542 319.8669 0002145  63.1025 297.0183 15.06406295155378","CLASSIFICATION_TYPE":"U","ARG_OF_PERICENTER":"63.1025","BSTAR":"0.00081371000000","INCLINATION":"53.0542"},{"LAUNCH_DATE":"2020-03-18","NORAD_CAT_ID":"45379","DECAY_DATE":null,"OBJECT_TYPE":"PAYLOAD","RCS_SIZE":"LARGE","SITE":"AFETR","MEAN_ANOMALY":"292.4878","SEMIMAJOR_AXIS":"6925.367","RA_OF_ASC_NODE":"321.0354","GP_ID":"222420440","CENTER_NAME":"EARTH","ELEMENT_SET_NO":"999","MEAN_MOTION":"15.06394102","COUNTRY_CODE":"US","PERIOD":"95.593","MEAN_MOTION_DDOT":"0.0000000000000","TIME_SYSTEM":"UTC","OBJECT_NAME":"STARLINK-1319","MEAN_MOTION_DOT":"-0.00000187","ECCENTRICITY":"0.00016310","TLE_LINE2":"2 45379  53.0553 321.0354 0001631  67.6284 292.4878 15.06394102155331","FILE":"3735488","CLASSIFICATION_TYPE":"U","ARG_OF_PERICENTER":"67.6284","EPHEMERIS_TYPE":"0","MEAN_ELEMENT_THEORY":"SGP4","OBJECT_ID":"2020-019V","REV_AT_EPOCH":"15533","APOAPSIS":"548.361","REF_FRAME":"TEME","TLE_LINE1":"1 45379U 20019V   23007.59091583 -.00000187  00000-0  63552-5 0  9995","PERIAPSIS":"546.102","EPOCH":"2023-01-07T14:10:55.127712","INCLINATION":"53.0553","BSTAR":"0.00000635520000"},{"OBJECT_TYPE":"PAYLOAD","DECAY_DATE":null,"LAUNCH_DATE":"2020-03-18","NORAD_CAT_ID":"45380","SEMIMAJOR_AXIS":"6925.309","RA_OF_ASC_NODE":"301.3491","GP_ID":"222420190","CENTER_NAME":"EARTH","RCS_SIZE":"LARGE","SITE":"AFETR","MEAN_ANOMALY":"303.4778","COUNTRY_CODE":"US","TIME_SYSTEM":"UTC","MEAN_MOTION_DDOT":"0.0000000000000","PERIOD":"95.591","MEAN_MOTION":"15.06412953","ELEMENT_SET_NO":"999","OBJECT_NAME":"STARLINK-1207","CLASSIFICATION_TYPE":"U","ARG_OF_PERICENTER":"56.6383","ECCENTRICITY":"0.00018000","MEAN_MOTION_DOT":"0.00023593","FILE":"3735488","TLE_LINE2":"2 45380  53.0543 301.3491 0001800  56.6383 303.4778 15.06412953155596","PERIAPSIS":"545.927","TLE_LINE1":"1 45380U 20019W   23007.52272783  .00023593  00000-0  15969-2 0  9994","REF_FRAME":"TEME","APOAPSIS":"548.420","REV_AT_EPOCH":"15559","EPOCH":"2023-01-07T12:32:43.684512","EPHEMERIS_TYPE":"0","MEAN_ELEMENT_THEORY":"SGP4","OBJECT_ID":"2020-019W","INCLINATION":"53.0543","BSTAR":"0.00159690000000"},{"BSTAR":"0.00089845000000","INCLINATION":"53.0549","EPHEMERIS_TYPE":"0","OBJECT_ID":"2020-019X","MEAN_ELEMENT_THEORY":"SGP4","TLE_LINE1":"1 45381U 20019X   23007.53378469  .00013127  00000-0  89845-3 0  9991","PERIAPSIS":"546.256","REV_AT_EPOCH":"15559","APOAPSIS":"548.155","REF_FRAME":"TEME","EPOCH":"2023-01-07T12:48:38.997216","MEAN_MOTION_DOT":"0.00013127","ECCENTRICITY":"0.00013710","FILE":"3735488","TLE_LINE2":"2 45381  53.0549 301.3060 0001371  60.6252 299.4873 15.06402641155591","CLASSIFICATION_TYPE":"U","ARG_OF_PERICENTER":"60.6252","OBJECT_NAME":"STARLINK-1258","MEAN_MOTION":"15.06402641","ELEMENT_SET_NO":"999","COUNTRY_CODE":"US","TIME_SYSTEM":"UTC","MEAN_MOTION_DDOT":"0.0000000000000","PERIOD":"95.592","RCS_SIZE":"LARGE","SITE":"AFETR","MEAN_ANOMALY":"299.4873","RA_OF_ASC_NODE":"301.3060","SEMIMAJOR_AXIS":"6925.340","CENTER_NAME":"EARTH","GP_ID":"222420940","DECAY_DATE":null,"NORAD_CAT_ID":"45381","LAUNCH_DATE":"2020-03-18","OBJECT_TYPE":"PAYLOAD"},{"COUNTRY_CODE":"US","MEAN_MOTION_DDOT":"0.0000000000000","TIME_SYSTEM":"UTC","PERIOD":"95.288","MEAN_MOTION":"15.11204314","ELEMENT_SET_NO":"999","OBJECT_NAME":"STARLINK-1264","OBJECT_TYPE":"PAYLOAD","DECAY_DATE":null,"LAUNCH_DATE":"2020-03-18","NORAD_CAT_ID":"45382","RA_OF_ASC_NODE":"299.4298","SEMIMAJOR_AXIS":"6910.663","GP_ID":"222421191","CENTER_NAME":"EARTH","RCS_SIZE":"LARGE","MEAN_ANOMALY":"287.3634","SITE":"AFETR","INCLINATION":"53.0515","BSTAR":"0.00211460000000","CLASSIFICATION_TYPE":"U","ARG_OF_PERICENTER":"72.7594","ECCENTRICITY":"0.00021680","MEAN_MOTION_DOT":"0.00035809","FILE":"3735488","TLE_LINE2":"2 45382  53.0515 299.4298 0002168  72.7594 287.3634 15.11204314155441","PERIAPSIS":"531.030","TLE_LINE1":"1 45382U 20019Y   23007.53734368  .00035809  00000-0  21146-2 0  9996","REF_FRAME":"TEME","APOAPSIS":"534.026","REV_AT_EPOCH":"15544","EPOCH":"2023-01-07T12:53:46.493952","EPHEMERIS_TYPE":"0","MEAN_ELEMENT_THEORY":"SGP4","OBJECT_ID":"2020-019Y"},{"EPHEMERIS_TYPE":"0","OBJECT_ID":"2020-019Z","MEAN_ELEMENT_THEORY":"SGP4","TLE_LINE1":"1 45383U 20019Z   23007.85815609  .00015041  00000-0  10262-2 0  9993","PERIAPSIS":"545.728","REV_AT_EPOCH":"15564","APOAPSIS":"548.637","REF_FRAME":"TEME","EPOCH":"2023-01-07T20:35:44.686176","MEAN_MOTION_DOT":"0.00015041","ECCENTRICITY":"0.00021000","FILE":"3735488","TLE_LINE2":"2 45383  53.0546 299.8494 0002100  55.9673 304.1515 15.06410102155641","CLASSIFICATION_TYPE":"U","ARG_OF_PERICENTER":"55.9673","BSTAR":"0.00102620000000","INCLINATION":"53.0546","RCS_SIZE":"LARGE","MEAN_ANOMALY":"304.1515","SITE":"AFETR","SEMIMAJOR_AXIS":"6925.318","RA_OF_ASC_NODE":"299.8494","CENTER_NAME":"EARTH","GP_ID":"222419940","DECAY_DATE":null,"NORAD_CAT_ID":"45383","LAUNCH_DATE":"2020-03-18","OBJECT_TYPE":"PAYLOAD","OBJECT_NAME":"STARLINK-1266","MEAN_MOTION":"15.06410102","ELEMENT_SET_NO":"999","COUNTRY_CODE":"US","TIME_SYSTEM":"UTC","MEAN_MOTION_DDOT":"0.0000000000000","PERIOD":"95.591"},{"MEAN_MOTION":"15.06379836","ELEMENT_SET_NO":"999","MEAN_MOTION_DDOT":"0.0000000000000","TIME_SYSTEM":"UTC","PERIOD":"95.593","COUNTRY_CODE":"US","OBJECT_NAME":"STARLINK-1267","DECAY_DATE":null,"LAUNCH_DATE":"2020-03-18","NORAD_CAT_ID":"45384","OBJECT_TYPE":"PAYLOAD","MEAN_ANOMALY":"312.8622","SITE":"AFETR","RCS_SIZE":"LARGE","GP_ID":"222420691","CENTER_NAME":"EARTH","RA_OF_ASC_NODE":"300.1894","SEMIMAJOR_AXIS":"6925.410","INCLINATION":"53.0557","BSTAR":"0.00009640100000","FILE":"3735488","TLE_LINE2":"2 45384  53.0557 300.1894 0001840  47.2521 312.8622 15.06379836155632","MEAN_MOTION_DOT":"0.00001154","ECCENTRICITY":"0.00018400","ARG_OF_PERICENTER":"47.2521","CLASSIFICATION_TYPE":"U","OBJECT_ID":"2020-019AA","MEAN_ELEMENT_THEORY":"SGP4","EPHEMERIS_TYPE":"0","EPOCH":"2023-01-07T18:42:55.394784","TLE_LINE1":"1 45384U 20019AA  23007.77980781  .00001154  00000-0  96401-4 0  9990","PERIAPSIS":"546.001","APOAPSIS":"548.550","REF_FRAME":"TEME","REV_AT_EPOCH":"15563"},{"ARG_OF_PERICENTER":"100.6677","CLASSIFICATION_TYPE":"U","FILE":"3735488","TLE_LINE2":"2 45386  53.0548 300.1693 0001466 100.6677 259.4477 15.06384697155636","ECCENTRICITY":"0.00014660","MEAN_MOTION_DOT":"0.00002864","EPOCH":"2023-01-07T18:49:35.985792","PERIAPSIS":"546.245","TLE_LINE1":"1 45386U 20019AC  23007.78444428  .00002864  00000-0  21114-3 0  9993","REV_AT_EPOCH":"15563","APOAPSIS":"548.276","REF_FRAME":"TEME","OBJECT_ID":"2020-019AC","MEAN_ELEMENT_THEORY":"SGP4","EPHEMERIS_TYPE":"0","INCLINATION":"53.0548","BSTAR":"0.00021114000000","OBJECT_TYPE":"PAYLOAD","DECAY_DATE":null,"LAUNCH_DATE":"2020-03-18","NORAD_CAT_ID":"45386","GP_ID":"222421441","CENTER_NAME":"EARTH","SEMIMAJOR_AXIS":"6925.395","RA_OF_ASC_NODE":"300.1693","SITE":"AFETR","MEAN_ANOMALY":"259.4477","RCS_SIZE":"LARGE","TIME_SYSTEM":"UTC","MEAN_MOTION_DDOT":"0.0000000000000","PERIOD":"95.593","COUNTRY_CODE":"US","MEAN_MOTION":"15.06384697","ELEMENT_SET_NO":"999","OBJECT_NAME":"STARLINK-1272"}];
